CUTE-1 (CO-55)          
1 27844U 03031E   26176.95866144  .00000278  00000+0  13913-3 0  9993
2 27844  98.6736 185.4073 0010067 153.3060 206.8639 14.24340671192925
CUBESAT XI-IV (CO-57)   
1 27848U 03031J   26176.95152158  .00000236  00000+0  12262-3 0  9990
2 27848  98.6767 185.1059 0009590 171.2746 188.8601 14.23625133192626
CUBESAT XI-V            
1 28895U 05043F   26177.23557749  .00001423  00000+0  23139-3 0  9999
2 28895  98.2992 333.0476 0014267 171.8750 188.2691 14.72654434103085
CUTE-1.7+APD II (CO-65) 
1 32785U 08021C   26177.26407939  .00005208  00000+0  32855-3 0  9999
2 32785  97.8274 158.8717 0008853  11.3283 348.8143 15.09534115986562
CANX-2                  
1 32790U 08021H   26177.19360879  .00003939  00000+0  27677-3 0  9993
2 32790  97.8637 157.1467 0010875  24.7511 335.4235 15.05679693986161
SEEDS II (CO-66)        
1 32791U 08021J   26176.94816341  .00021509  00000+0  67552-3 0  9995
2 32791  97.7517 175.2655 0000426 222.9381 137.1827 15.33033686988631
SWISSCUBE               
1 35932U 09051B   26176.72079970  .00000938  00000+0  19487-3 0  9991
2 35932  98.4029  84.7576 0006581 174.6664 185.4608 14.62496515890403
BEESAT-1                
1 35933U 09051C   26176.73467954  .00000781  00000+0  16647-3 0  9997
2 35933  98.3958  84.3893 0004779 186.3683 173.7458 14.61733092890439
ITUPSAT1                
1 35935U 09051E   26177.28115546  .00000737  00000+0  16205-3 0  9998
2 35935  98.4042  84.1263 0006725 201.3740 158.7180 14.60453195890066
TISAT 1                 
1 36799U 10035E   26176.80493668  .00024751  00000+0  80171-3 0  9997
2 36799  98.0701 124.1198 0002553 153.3468 206.7903 15.32016545869026
AEROCUBE 4.5A           
1 38767U 12048K   26176.90760364  .01044300  62559-3  12854-2 0  9997
2 38767  64.6191 354.7123 0018692 248.7404 111.1768 16.07344693374057
STRAND-1                
1 39090U 13009E   26177.24607153  .00000284  00000+0  10994-3 0  9994
2 39090  98.3924 357.2575 0008230 196.0425 164.0502 14.37168321698368
BRITE-AUSTRIA           
1 39091U 13009F   26176.98425795  .00000156  00000+0  67554-4 0  9998
2 39091  98.3998 356.2023 0009569 207.8221 152.2455 14.36545238698314
NEE-01 PEGASO           
1 39151U 13018B   26176.37138951  .00002452  00000+0  23719-3 0  9998
2 39151  98.1231 320.7925 0013540 133.4455 226.7893 14.93700411711928
POPACS 2                
1 39269U 13055E   26176.89930248  .00017101  00000+0  28728-3 0  9997
2 39269  80.9906 134.2187 0416476 165.8045 195.5318 14.91433941664519
POPACS 3                
1 39270U 13055F   26177.12041125  .00011066  00000+0  26100-3 0  9999
2 39270  81.0000 219.5008 0551207  42.8006 321.4756 14.56278446639853
ZACUBE-1 (TSHEPISOSAT)  
1 39417U 13066B   26177.20569669  .00003428  00000+0  26694-3 0  9992
2 39417  97.8049 139.5889 0042047 216.9401 142.8926 15.01234415682088
WNISAT-1                
1 39423U 13066H   26176.99523734  .00001061  00000+0  20134-3 0  9991
2 39423  97.7210 325.5267 0162508 203.6978 155.6680 14.58078197668018
TRITON-1                
1 39427U 13066M   26177.00713103  .00001845  00000+0  22538-3 0  9999
2 39427  97.8241  86.6133 0088981 204.7337 154.9598 14.81732282675394
GOMX-1                  
1 39430U 13066Q   26177.24225969  .00001798  00000+0  27403-3 0  9990
2 39430  97.6486  17.1335 0129843  48.8122 312.4196 14.69488586671248
CUBEBUG-2 (LO-74)       
1 39440U 13066AA  26177.30703342  .00004524  00000+0  41817-3 0  9999
2 39440  97.8903 126.3239 0057502 358.9510   1.1580 14.93833268678355
NEE-02 KRYSAOR          
1 39441U 13066AB  26176.55526841  .00002568  00000+0  28387-3 0  9996
2 39441  97.8891 115.7100 0067228  43.3544 317.2932 14.86653035677444
FUNCUBE-1 (AO-73)       
1 39444U 13066AE  26177.20421799  .00008222  00000+0  50781-3 0  9994
2 39444  97.8271 148.8384 0036562 170.3279 189.8662 15.09588977681023
UWE-3                   
1 39446U 13066AG  26176.83787144  .00004431  00000+0  38106-3 0  9998
2 39446  97.8708 132.9703 0046807 291.8607  67.7640 14.97092153678877
BRITE-CA1 (TORONTO)     
1 40020U 14033L   26177.27822434  .00000831  00000+0  13250-3 0  9997
2 40020  97.9748 306.0390 0077318 247.3952 111.9063 14.72689851643556
DUCHIFAT-1              
1 40021U 14033M   26176.71541040  .00141113  00000+0  13462-2 0  9990
2 40021  98.0450 237.0839 0001517 101.6443 258.4986 15.66313669657084
NANOSATC-BR1            
1 40024U 14033Q   26177.02544975  .00019699  00000+0  64467-3 0  9993
2 40024  98.0722 210.1973 0005106 141.8822 218.2780 15.31726656655333
QB50P1                  
1 40025U 14033R   26177.24478525  .00009878  00000+0  48340-3 0  9995
2 40025  98.0964 189.0261 0008741 183.1826 176.9352 15.18390211654408
QB50P2                  
1 40032U 14033Y   26177.21346655  .00008412  00000+0  45050-3 0  9996
2 40032  98.0752 174.6559 0008782 136.5428 223.6497 15.15268593654039
PERSEUS-M2              
1 40037U 14033AD  26177.16254050  .00001927  00000+0  17921-3 0  9992
2 40037  97.9972 127.8856 0009951 271.5685  88.4395 14.95541428652120
